OBJECT B                
1 51825U 22019B   24062.79524677  .00009887  00000+0  47514-3 0  9991
2 51825  97.4402 135.6264 0014073 249.4707 110.5017 15.18939826111060
